              M50 Cartesian                         M50 Keplerian  
    -----------------------------------       --------------------------------
     X    =         887836.79                 A    =         6780109.83  meter
     Y    =        4964797.17  meter          E    =           .0008582
     Z    =       -4539405.21                 I    =           51.93222
     XDOT =      -5752.730688                 Wp   =          100.99831
     YDOT =       3934.429714  meter/sec      RA   =          124.68303  deg
     ZDOT =       3181.480599                 TA   =          200.81879
                                              MA   =          200.85376
                                              Ha   =            220.591  n.mi
                                              Hp   =            214.659
 
              M50 Cartesian                         J2K Cartesian  
    -----------------------------------       --------------------------------
     X    =        2912850.37                 X    =          854303.65
     Y    =       16288704.64  feet           Y    =         4974537.32  meter
     Z    =      -14893061.72                 Z    =        -4535174.59
     XDOT =     -18873.788345                 XDOT =       -5811.753145
     YDOT =      12908.233970  feet/sec       YDOT =        3869.769358  meter/sec
     ZDOT =      10437.928474                 ZDOT =        3153.391324
 
              TDR Cartesian                         TDR Cartesian  
    -----------------------------------       --------------------------------
     X    =       -3667023.52                 X    =        -1117708.77
     Y    =       16151869.91  feet           Y    =         4923089.95  meter
     Z    =      -14875480.51                 Z    =        -4534046.46
     XDOT =     -21320.867627                 XDOT =       -6498.600453
     YDOT =       4648.948250  feet/sec       YDOT =        1416.999427  meter/sec
     ZDOT =      10315.240183                 ZDOT =        3144.085208
  
  
    The mean element set is posted at the UTC for which position is
    just north of the next ascending node relative to the above
    vector time
 
 
    TWO LINE MEAN ELEMENT SET
  
    ISS
    1 25544U 98067A   16083.44447708  .00016717  00000-0  10270-3 0  9148
    2 25544  51.6417 125.6704 0001938 338.0668  22.0402 15.54304743 31646
  
  
    Satellite: ISS
    Catalog Number: 25544
    Epoch time:      16083.44447708   =   yrday.fracday
    Element set:     914
    Inclination:       51.6417  deg
    RA of node:       125.6704  deg
    Eccentricity:     .0001938     
    Arg of perigee:   338.0668  deg
    Mean anomaly:      22.0402  deg
    Mean motion:   15.54304743  rev/day
    Decay rate:    1.67170E-04  rev/day^2
    Epoch rev:            3164
    Checksum:              298
 
 
    Coasting Arc #16 (Orbit 3175)
    ---------------------------------------
 
    Vector Time (GMT): 2016/084/04:20:00.000
    Vector Time (MET): N/A
    Weight (LBS)     : 905478.2
 
              M50 Cartesian                         M50 Keplerian  
    -----------------------------------       --------------------------------
     X    =        2203755.26                 A    =         6787635.53  meter
     Y    =       -6195295.01  meter          E    =           .0012758
     Z    =        1661517.28                 I    =           51.96797
     XDOT =       5080.389431                 Wp   =          110.31289
     YDOT =        259.546005  meter/sec      RA   =          120.98036  deg
     ZDOT =      -5739.349723                 TA   =           51.56637
                                              MA   =           51.45192
                                              Ha   =            220.637  n.mi
                                              Hp   =            214.566
 
              M50 Cartesian                         J2K Cartesian  
    -----------------------------------       --------------------------------
     X    =        7230168.16                 X    =         2264797.85
     Y    =      -20325771.03  feet           Y    =        -6170309.58  meter
     Z    =        5451172.16                 Z    =         1672371.83
     XDOT =      16667.944329                 XDOT =        5104.988865
     YDOT =        851.528889  feet/sec       YDOT =         316.494926  meter/sec
     ZDOT =     -18829.887542                 ZDOT =       -5714.610730
 
              TDR Cartesian                         TDR Cartesian  
    -----------------------------------       --------------------------------
     X    =       15700819.16                 X    =         4785609.68
     Y    =       14777315.10  feet           Y    =         4504125.64  meter
     Z    =        5499346.67                 Z    =         1676200.87
     XDOT =      -6467.359404                 XDOT =       -1971.251146
     YDOT =      13876.883343  feet/sec       YDOT =        4229.674043  meter/sec
     ZDOT =     -18722.430701                 ZDOT =       -5706.596878
  
  
    The mean element set is posted at the UTC for which position is
    just north of the next ascending node relative to the above
    vector time
 
 
    TWO LINE MEAN ELEMENT SET
  
    ISS
    1 25544U 98067A   16084.21602104  .00016717  00000-0  10270-3 0  9158
    2 25544  51.6391 121.8197 0001811 342.5783  17.5307 15.54302046 31769
  
  
    Satellite: ISS
    Catalog Number: 25544
    Epoch time:      16084.21602104   =   yrday.fracday
    Element set:     915
    Inclination:       51.6391  deg
    RA of node:       121.8197  deg
    Eccentricity:     .0001811     
    Arg of perigee:   342.5783  deg
    Mean anomaly:      17.5307  deg
    Mean motion:   15.54302046  rev/day
    Decay rate:    1.67170E-04  rev/day^2
    Epoch rev:            3176
    Checksum:              281
 
 
    Coasting Arc #17 (Orbit 3191)
    ---------------------------------------
 
    Vector Time (GMT): 2016/085/04:20:00.000
    Vector Time (MET): N/A
    Weight (LBS)     : 905478.2
 
              M50 Cartesian                         M50 Keplerian  
    -----------------------------------       --------------------------------
     X    =       -3032781.24                 A    =         6788769.30  meter
     Y    =        6065377.31  meter          E    =           .0013201
     Z    =          80774.77                 I    =           51.98839
     XDOT =      -4190.134432                 Wp   =           40.07468
     YDOT =      -2182.752729  meter/sec      RA   =          116.03232  deg
     ZDOT =       6042.631748                 TA   =          320.79149
                                              MA   =          320.88704
                                              Ha   =            220.673  n.mi
                                              Hp   =            214.488
 
              M50 Cartesian                         J2K Cartesian  
    -----------------------------------       --------------------------------
     X    =       -9950069.69                 X    =        -3100772.77
     Y    =       19899531.87  feet           Y    =         6031082.59  meter
     Z    =         265009.09                 Z    =           65876.16
     XDOT =     -13747.160210                 XDOT =       -4194.767566
     YDOT =      -7161.262233  feet/sec       YDOT =       -2229.634592  meter/sec
     ZDOT =      19824.907310                 ZDOT =        6022.266113
 
              TDR Cartesian                         TDR Cartesian  
    -----------------------------------       --------------------------------
     X    =      -14492608.06                 X    =        -4417346.94
     Y    =      -16881649.47  feet           Y    =        -5145526.76  meter
     Z    =         199268.78                 Z    =           60737.12
     XDOT =      10742.993432                 XDOT =        3274.464398
     YDOT =      -8962.056034  feet/sec       YDOT =       -2731.634679  meter/sec
     ZDOT =      19736.767451                 ZDOT =        6015.766719
  
  
    The mean element set is posted at the UTC for which position is
    just north of the next ascending node relative to the above
    vector time
 
 
    TWO LINE MEAN ELEMENT SET
  
    ISS
    1 25544U 98067A   16085.24473572  .00016717  00000-0  10270-3 0  9168
    2 25544  51.6399 116.6906 0001693 348.2296  11.8817 15.54321611 31927
  
  
    Satellite: ISS
    Catalog Number: 25544
    Epoch time:      16085.24473572   =   yrday.fracday
    Element set:     916
    Inclination:       51.6399  deg
    RA of node:       116.6906  deg
    Eccentricity:     .0001693     
    Arg of perigee:   348.2296  deg
    Mean anomaly:      11.8817  deg
    Mean motion:   15.54321611  rev/day
    Decay rate:    1.67170E-04  rev/day^2
    Epoch rev:            3192
    Checksum:              319
 
 
    Coasting Arc #18 (Orbit 3206)
    ---------------------------------------
 
    Vector Time (GMT): 2016/086/04:20:00.000
    Vector Time (MET): N/A
    Weight (LBS)     : 905478.2
 
              M50 Cartesian                         M50 Keplerian  
    -----------------------------------       --------------------------------
     X    =        3640934.83                 A    =         6787270.70  meter
     Y    =       -5418105.51  meter          E    =           .0005759
     Z    =       -1853264.83                 I    =           51.99686
     XDOT =       3177.003729                 Wp   =          132.60227
     YDOT =       4068.087602  meter/sec      RA   =          111.08407  deg
     ZDOT =      -5666.632238                 TA   =           67.67700
                                              MA   =           67.61596
                                              Ha   =            220.677  n.mi
                                              Hp   =            214.444
 
